<?xml version="1.0" encoding="UTF-8"?>
<ndm xmlns:xsi="http://www.w3.org/2001/XMLSchema-instance" xsi:noNamespaceSchemaLocation="https://sanaregistry.org/r/ndmxml_unqualified/ndmxml-2.0.0-master-2.0.xsd">
<omm id="CCSDS_OMM_VERS" version="2.0">
<header><CREATION_DATE/><ORIGINATOR/></header><body><segment><metadata><OBJECT_NAME>KUIPER-00125</OBJECT_NAME><OBJECT_ID>2025-228H</OBJECT_ID><CENTER_NAME>EARTH</CENTER_NAME><REF_FRAME>TEME</REF_FRAME><TIME_SYSTEM>UTC</TIME_SYSTEM><MEAN_ELEMENT_THEORY>SGP4</MEAN_ELEMENT_THEORY></metadata><data><meanElements><EPOCH>2025-12-29T12:00:00.998784</EPOCH><MEAN_MOTION>15.37319337</MEAN_MOTION><ECCENTRICITY>.0006335</ECCENTRICITY><INCLINATION>51.8790</INCLINATION><RA_OF_ASC_NODE>299.4685</RA_OF_ASC_NODE><ARG_OF_PERICENTER>83.4627</ARG_OF_PERICENTER><MEAN_ANOMALY>358.2884</MEAN_ANOMALY></meanElements><tleParameters><EPHEMERIS_TYPE>0</EPHEMERIS_TYPE><CLASSIFICATION_TYPE>U</CLASSIFICATION_TYPE><NORAD_CAT_ID>65954</NORAD_CAT_ID><ELEMENT_SET_NO>999</ELEMENT_SET_NO><REV_AT_EPOCH>557</REV_AT_EPOCH><BSTAR>.47395E-3</BSTAR><MEAN_MOTION_DOT>.1726E-3</MEAN_MOTION_DOT><MEAN_MOTION_DDOT>0</MEAN_MOTION_DDOT></tleParameters></data></segment></body></omm>
<omm id="CCSDS_OMM_VERS" version="2.0">
<header><CREATION_DATE/><ORIGINATOR/></header><body><segment><metadata><OBJECT_NAME>KUIPER-00126</OBJECT_NAME><OBJECT_ID>2025-228J</OBJECT_ID><CENTER_NAME>EARTH</CENTER_NAME><REF_FRAME>TEME</REF_FRAME><TIME_SYSTEM>UTC</TIME_SYSTEM><MEAN_ELEMENT_THEORY>SGP4</MEAN_ELEMENT_THEORY></metadata><data><meanElements><EPOCH>2025-12-29T12:00:00.998784</EPOCH><MEAN_MOTION>14.80024122</MEAN_MOTION><ECCENTRICITY>.0000958</ECCENTRICITY><INCLINATION>51.8992</INCLINATION><RA_OF_ASC_NODE>310.9907</RA_OF_ASC_NODE><ARG_OF_PERICENTER>98.1345</ARG_OF_PERICENTER><MEAN_ANOMALY>272.2024</MEAN_ANOMALY></meanElements><tleParameters><EPHEMERIS_TYPE>0</EPHEMERIS_TYPE><CLASSIFICATION_TYPE>U</CLASSIFICATION_TYPE><NORAD_CAT_ID>65955</NORAD_CAT_ID><ELEMENT_SET_NO>999</ELEMENT_SET_NO><REV_AT_EPOCH>355</REV_AT_EPOCH><BSTAR>-.60845E-2</BSTAR><MEAN_MOTION_DOT>-.46387E-3</MEAN_MOTION_DOT><MEAN_MOTION_DDOT>0</MEAN_MOTION_DDOT></tleParameters></data></segment></body></omm>
<omm id="CCSDS_OMM_VERS" version="2.0">
<header><CREATION_DATE/><ORIGINATOR/></header><body><segment><metadata><OBJECT_NAME>KUIPER-00127</OBJECT_NAME><OBJECT_ID>2025-228K</OBJECT_ID><CENTER_NAME>EARTH</CENTER_NAME><REF_FRAME>TEME</REF_FRAME><TIME_SYSTEM>UTC</TIME_SYSTEM><MEAN_ELEMENT_THEORY>SGP4</MEAN_ELEMENT_THEORY></metadata><data><meanElements><EPOCH>2025-12-28T21:02:14.078976</EPOCH><MEAN_MOTION>14.97878178</MEAN_MOTION><ECCENTRICITY>.00053715</ECCENTRICITY><INCLINATION>51.8991</INCLINATION><RA_OF_ASC_NODE>310.3202</RA_OF_ASC_NODE><ARG_OF_PERICENTER>113.9101</ARG_OF_PERICENTER><MEAN_ANOMALY>246.2432</MEAN_ANOMALY></meanElements><tleParameters><EPHEMERIS_TYPE>0</EPHEMERIS_TYPE><CLASSIFICATION_TYPE>U</CLASSIFICATION_TYPE><NORAD_CAT_ID>65956</NORAD_CAT_ID><ELEMENT_SET_NO>999</ELEMENT_SET_NO><REV_AT_EPOCH>1279</REV_AT_EPOCH><BSTAR>.1538125E-2</BSTAR><MEAN_MOTION_DOT>.18092E-3</MEAN_MOTION_DOT><MEAN_MOTION_DDOT>0</MEAN_MOTION_DDOT></tleParameters></data></segment></body></omm>
<omm id="CCSDS_OMM_VERS" version="2.0">
<header><CREATION_DATE/><ORIGINATOR/></header><body><segment><metadata><OBJECT_NAME>KUIPER-00128</OBJECT_NAME><OBJECT_ID>2025-228L</OBJECT_ID><CENTER_NAME>EARTH</CENTER_NAME><REF_FRAME>TEME</REF_FRAME><TIME_SYSTEM>UTC</TIME_SYSTEM><MEAN_ELEMENT_THEORY>SGP4</MEAN_ELEMENT_THEORY></metadata><data><meanElements><EPOCH>2025-12-29T12:00:00.998784</EPOCH><MEAN_MOTION>14.93367552</MEAN_MOTION><ECCENTRICITY>.0003773</ECCENTRICITY><INCLINATION>51.9040</INCLINATION><RA_OF_ASC_NODE>304.1252</RA_OF_ASC_NODE><ARG_OF_PERICENTER>108.4091</ARG_OF_PERICENTER><MEAN_ANOMALY>96.4495</MEAN_ANOMALY></meanElements><tleParameters><EPHEMERIS_TYPE>0</EPHEMERIS_TYPE><CLASSIFICATION_TYPE>U</CLASSIFICATION_TYPE><NORAD_CAT_ID>65957</NORAD_CAT_ID><ELEMENT_SET_NO>999</ELEMENT_SET_NO><REV_AT_EPOCH>444</REV_AT_EPOCH><BSTAR>-.72334E-1</BSTAR><MEAN_MOTION_DOT>-.720229E-2</MEAN_MOTION_DOT><MEAN_MOTION_DDOT>0</MEAN_MOTION_DDOT></tleParameters></data></segment></body></omm>
<omm id="CCSDS_OMM_VERS" version="2.0">
<header><CREATION_DATE/><ORIGINATOR/></header><body><segment><metadata><OBJECT_NAME>KUIPER-00129</OBJECT_NAME><OBJECT_ID>2025-228M</OBJECT_ID><CENTER_NAME>EARTH</CENTER_NAME><REF_FRAME>TEME</REF_FRAME><TIME_SYSTEM>UTC</TIME_SYSTEM><MEAN_ELEMENT_THEORY>SGP4</MEAN_ELEMENT_THEORY></metadata><data><meanElements><EPOCH>2025-12-29T12:00:00.998784</EPOCH><MEAN_MOTION>15.11559434</MEAN_MOTION><ECCENTRICITY>.0002214</ECCENTRICITY><INCLINATION>51.8837</INCLINATION><RA_OF_ASC_NODE>301.0643</RA_OF_ASC_NODE><ARG_OF_PERICENTER>47.0250</ARG_OF_PERICENTER><MEAN_ANOMALY>353.0808</MEAN_ANOMALY></meanElements><tleParameters><EPHEMERIS_TYPE>0</EPHEMERIS_TYPE><CLASSIFICATION_TYPE>U</CLASSIFICATION_TYPE><NORAD_CAT_ID>65958</NORAD_CAT_ID><ELEMENT_SET_NO>999</ELEMENT_SET_NO><REV_AT_EPOCH>542</REV_AT_EPOCH><BSTAR>-.83861E-3</BSTAR><MEAN_MOTION_DOT>-.14666E-3</MEAN_MOTION_DOT><MEAN_MOTION_DDOT>0</MEAN_MOTION_DDOT></tleParameters></data></segment></body></omm>
<omm id="CCSDS_OMM_VERS" version="2.0">
<header><CREATION_DATE/><ORIGINATOR/></header><body><segment><metadata><OBJECT_NAME>KUIPER-00130</OBJECT_NAME><OBJECT_ID>2025-228N</OBJECT_ID><CENTER_NAME>EARTH</CENTER_NAME><REF_FRAME>TEME</REF_FRAME><TIME_SYSTEM>UTC</TIME_SYSTEM><MEAN_ELEMENT_THEORY>SGP4</MEAN_ELEMENT_THEORY></metadata><data><meanElements><EPOCH>2025-12-29T12:00:00.998784</EPOCH><MEAN_MOTION>15.03511164</MEAN_MOTION><ECCENTRICITY>.000597</ECCENTRICITY><INCLINATION>51.9053</INCLINATION><RA_OF_ASC_NODE>302.3787</RA_OF_ASC_NODE><ARG_OF_PERICENTER>101.6960</ARG_OF_PERICENTER><MEAN_ANOMALY>14.7899</MEAN_ANOMALY></meanElements><tleParameters><EPHEMERIS_TYPE>0</EPHEMERIS_TYPE><CLASSIFICATION_TYPE>U</CLASSIFICATION_TYPE><NORAD_CAT_ID>65959</NORAD_CAT_ID><ELEMENT_SET_NO>999</ELEMENT_SET_NO><REV_AT_EPOCH>564</REV_AT_EPOCH><BSTAR>-.88978E-1</BSTAR><MEAN_MOTION_DOT>-.1130998E-1</MEAN_MOTION_DOT><MEAN_MOTION_DDOT>0</MEAN_MOTION_DDOT></tleParameters></data></segment></body></omm>
<omm id="CCSDS_OMM_VERS" version="2.0">
<header><CREATION_DATE/><ORIGINATOR/></header><body><segment><metadata><OBJECT_NAME>KUIPER-00134</OBJECT_NAME><OBJECT_ID>2025-228P</OBJECT_ID><CENTER_NAME>EARTH</CENTER_NAME><REF_FRAME>TEME</REF_FRAME><TIME_SYSTEM>UTC</TIME_SYSTEM><MEAN_ELEMENT_THEORY>SGP4</MEAN_ELEMENT_THEORY></metadata><data><meanElements><EPOCH>2025-12-28T06:34:03.658944</EPOCH><MEAN_MOTION>15.36085264</MEAN_MOTION><ECCENTRICITY>.0007674</ECCENTRICITY><INCLINATION>51.8782</INCLINATION><RA_OF_ASC_NODE>305.6617</RA_OF_ASC_NODE><ARG_OF_PERICENTER>73.7511</ARG_OF_PERICENTER><MEAN_ANOMALY>286.4319</MEAN_ANOMALY></meanElements><tleParameters><EPHEMERIS_TYPE>0</EPHEMERIS_TYPE><CLASSIFICATION_TYPE>U</CLASSIFICATION_TYPE><NORAD_CAT_ID>65960</NORAD_CAT_ID><ELEMENT_SET_NO>999</ELEMENT_SET_NO><REV_AT_EPOCH>1280</REV_AT_EPOCH><BSTAR>.14586E-2</BSTAR><MEAN_MOTION_DOT>.52075E-3</MEAN_MOTION_DOT><MEAN_MOTION_DDOT>0</MEAN_MOTION_DDOT></tleParameters></data></segment></body></omm>
<omm id="CCSDS_OMM_VERS" version="2.0">
<header><CREATION_DATE/><ORIGINATOR/></header><body><segment><metadata><OBJECT_NAME>KUIPER-00135</OBJECT_NAME><OBJECT_ID>2025-228Q</OBJECT_ID><CENTER_NAME>EARTH</CENTER_NAME><REF_FRAME>TEME</REF_FRAME><TIME_SYSTEM>UTC</TIME_SYSTEM><MEAN_ELEMENT_THEORY>SGP4</MEAN_ELEMENT_THEORY></metadata><data><meanElements><EPOCH>2025-12-29T12:00:00.998784</EPOCH><MEAN_MOTION>15.03604421</MEAN_MOTION><ECCENTRICITY>.0005574</ECCENTRICITY><INCLINATION>51.8933</INCLINATION><RA_OF_ASC_NODE>302.6873</RA_OF_ASC_NODE><ARG_OF_PERICENTER>92.9158</ARG_OF_PERICENTER><MEAN_ANOMALY>141.2670</MEAN_ANOMALY></meanElements><tleParameters><EPHEMERIS_TYPE>0</EPHEMERIS_TYPE><CLASSIFICATION_TYPE>U</CLASSIFICATION_TYPE><NORAD_CAT_ID>65961</NORAD_CAT_ID><ELEMENT_SET_NO>999</ELEMENT_SET_NO><REV_AT_EPOCH>585</REV_AT_EPOCH><BSTAR>-.65218E-1</BSTAR><MEAN_MOTION_DOT>-.839802E-2</MEAN_MOTION_DOT><MEAN_MOTION_DDOT>0</MEAN_MOTION_DDOT></tleParameters></data></segment></body></omm>

</ndm>
