KUIPER-00125            
1 65954U 25228H   25363.50001156  .00017260  00000+0  47395-3 0  9991
2 65954  51.8790 299.4685 0006335  83.4627 358.2884 15.37319337  5578
KUIPER-00126            
1 65955U 25228J   25363.50001156 -.00046387  00000+0 -60845-2 0  9990
2 65955  51.8992 310.9907 0000958  98.1345 272.2024 14.80024122  3553
KUIPER-00127            
1 65956U 25228K   25362.87655184  .00018092  00000+0  15381-2 0  9991
2 65956  51.8991 310.3202 0005371 113.9101 246.2432 14.97878178 12791
KUIPER-00128            
1 65957U 25228L   25363.50001156 -.00720229  00000+0 -72334-1 0  9991
2 65957  51.9040 304.1252 0003773 108.4091  96.4495 14.93367552  4447
KUIPER-00129            
1 65958U 25228M   25363.50001156 -.00014666  00000+0 -83861-3 0  9992
2 65958  51.8837 301.0643 0002214  47.0250 353.0808 15.11559434  5427
KUIPER-00130            
1 65959U 25228N   25363.50001156 -.01130998  00000+0 -88978-1 0  9993
2 65959  51.9053 302.3787 0005970 101.6960  14.7899 15.03511164  5643
KUIPER-00134            
1 65960U 25228P   25362.27365346  .00052075  00000+0  14586-2 0  9993
2 65960  51.8782 305.6617 0007674  73.7511 286.4319 15.36085264 12809
KUIPER-00135            
1 65961U 25228Q   25363.50001156 -.00839802  00000+0 -65218-1 0  9997
2 65961  51.8933 302.6873 0005574  92.9158 141.2670 15.03604421  5857
